CZ-2C R/B               
1 28480U 04046B   25331.74285374  .00000222  00000+0  97158-4 0  9999
2 28480  98.1976 248.0539 0140728  96.2943 265.4289 14.26930550 93968
ARIANE 5 R/B            
1 28499U 04049H   25332.16559279  .00001090  00000+0  12744-3 0  9998
2 28499  98.2518 131.9252 0083820 320.7845  38.7314 14.84962106130720
CZ-2D R/B               
1 28738U 05024B   25332.02764832  .00027546  00000+0  45523-3 0  9991
2 28738  97.3648 339.1010 0007567  50.3866 309.8054 15.52174966123974
ALOS (DAICHI)           
1 28931U 06002A   25332.12343090  .00001817  00000+0  31531-3 0  9990
2 28931  98.1074 283.7164 0000691  88.0555 272.0730 14.69417628 58565
H-2A R/B                
1 28932U 06002B   25331.85194420  .00011384  00000+0  60616-3 0  9997
2 28932  98.2312 105.3907 0054441 227.0724 132.5931 15.14119949 79013
RESURS-DK 1             
1 29228U 06021A   25331.87995251  .00003562  00000+0  21284-3 0  9997
2 29228  69.9318 140.2352 0007621 269.4708  90.5584 15.12029547 72130
CZ-4B R/B               
1 29507U 06046C   25332.11364507  .00005914  00000+0  31051-3 0  9992
2 29507  97.5760  12.2921 0032562 258.8959 100.8611 15.15651974 44650
CZ-2C R/B               
1 31114U 07010B   25331.85315757  .00000202  00000+0  11202-3 0  9995
2 31114  98.3969  85.2537 0058200 229.5564 130.0530 14.20200262965263
COSMO-SKYMED 1          
1 31598U 07023A   25332.20388275  .00005141  00000+0  46819-3 0  9999
2 31598  97.8849 157.5090 0001550  88.9786 271.1612 14.95603053999729
COSMOS 2428             
1 31792U 07029A   25331.94159588 -.00000088  00000+0 -21327-4 0  9999
2 31792  70.9375  56.9488 0002861  47.1698 312.9663 14.12886508949721
SL-16 R/B               
1 31793U 07029B   25332.16960406 -.00000094  00000+0 -23761-4 0  9995
2 31793  70.9776  25.7854 0002426 265.9912 111.1797 14.14817052951016
KORONAS-FOTON           
1 33504U 09003A   25332.14350948  .00014836  00000+0  36121-3 0  9993
2 33504  82.4325  21.2235 0012269 156.2442 203.9373 15.40721704930099
CZ-2C R/B               
1 37731U 11030B   25332.12431670  .00002003  00000+0  26067-3 0  9993
2 37731  97.8393 286.5572 0052062 322.4163  47.8512 14.80823363775063
H-2A R/B                
1 38341U 12025E   25332.10972229  .00003864  00000+0  35934-3 0  9993
2 38341  98.4583 286.2156 0043768 285.8808  73.7588 14.94301089733049
SHIJIAN-16 (SJ-16)      
1 39358U 13057A   25332.18519451  .00002228  00000+0  22246-3 0  9995
2 39358  74.9736  17.1924 0017119 354.2559   5.8429 14.91926763656364
SL-4 R/B                
1 39679U 14021B   25331.46031089  .00013456  00000+0  32537-3 0  9998
2 39679  51.6068 114.8192 0103079  91.2561 270.0233 15.36104683640545
ALOS-2                  
1 39766U 14029A   25332.20196080  .00002443  00000+0  33377-3 0  9996
2 39766  97.9229  67.2547 0001381  99.6502 260.4866 14.79488383621866
YAOGAN-29               
1 41038U 15069A   25332.17692039  .00000567  00000+0  76703-4 0  9993
2 41038  98.0234 355.3010 0001163  19.1473 340.9784 14.82857712540837
ASTRO-H (HITOMI)        
1 41337U 16012A   25332.20674424  .00003818  00000+0  22839-3 0  9998
2 41337  31.0003 291.0531 0009560  30.8267 329.2931 15.09213368536881
HXMT (HUIYAN)           
1 42758U 17034A   25332.16541959  .00007199  00000+0  37412-3 0  9991
2 42758  43.0134 220.4946 0033596 311.4019  48.3942 15.16060242467122
CZ-2C R/B               
1 43521U 18054D   25332.19473595  .00102649  00000+0  78263-3 0  9991
2 43521  35.1348 279.2741 0019673 353.0379   7.0078 15.70659997412769
SAOCOM 1A               
1 43641U 18076A   25332.15714030  .00000594  00000+0  81160-4 0  9993
2 43641  97.8850 156.7913 0001578  89.0317 271.1077 14.82152643386321
H-2A R/B                
1 43682U 18084L   25332.10941398  .00020399  00000+0  56487-3 0  9999
2 43682  98.8790 163.1651 0028453  16.3943 343.8210 15.36627231390152
SAOCOM 1B               
1 46265U 20059A   25332.18838374  .00000579  00000+0  79321-4 0  9992
2 46265  97.8845 155.9235 0001349  90.8258 269.3110 14.82161377283718
CSS (TIANHE)            
1 48274U 21035A   25331.84998818  .00016597  00000+0  21579-3 0  9999
2 48274  41.4664 107.0411 0010719 283.2651  76.6991 15.58344779261708
COSMOS 2550             
1 48865U 21056A   25330.81540081 -.00000141  00000+0  15339-5 0  9997
2 48865  67.1432 352.1024 0008298 270.4119  89.6085 15.33840302247686
CZ-2C R/B               
1 52794U 22058K   25331.70187952  .00030475  00000+0  56529-3 0  9995
2 52794  50.1896 120.1779 0047203 136.3599 224.1117 15.47417374194305
CZ-2C R/B               
1 54039U 22132E   25331.73296981  .00029152  00000+0  45399-3 0  9991
2 54039  97.2952 327.6603 0024034 106.0640 254.3262 15.53506986174503
GSLV R/B                
1 54149U 22138AN  25332.07375032  .00002963  00000+0  26039-3 0  9993
2 54149  87.3843 200.3842 0022518 154.5293 205.7054 14.96017322168737
XRISM                   
1 57800U 23137A   25332.09561653  .00005851  00000+0  34416-3 0  9995
2 57800  31.0010 220.0810 0007581  96.6575 263.4926 15.10140036122412
ACS3                    
1 59588U 24077B   25331.43767900  .00009057  00000+0  79378-2 0  9991
2 59588  97.2878 290.4584 0074855   6.8658 353.3510 13.84395279 80023
